[
  {
    "OBJECT_NAME": "STARLINK-5671",
    "OBJECT_ID": "23013J",
    "EPOCH": "2025-11-11T03:15:55.675584",
    "MEAN_MOTION": 15.0254629,
    "ECCENTRICITY": 4.87e-05,
    "INCLINATION": 43.0005,
    "RA_OF_ASC_NODE": 224.71,
    "ARG_OF_PERICENTER": 295.2688,
    "MEAN_ANOMALY": 64.8103,
    "EPHEMERIS_TYPE": 0,
    "CLASSIFICATION_TYPE": "U",
    "NORAD_CAT_ID": 55339,
    "ELEMENT_SET_NO": 999,
    "REV_AT_EPOCH": 15387,
    "BSTAR": 0.00015816,
    "MEAN_MOTION_DOT": 1.934e-05,
    "MEAN_MOTION_DDOT": 0.0,
    "TLE_LINE1": "1 55339U 23013J   25315.13606106  .00001934  00000+0  15816-3 0  9993",
    "TLE_LINE2": "2 55339  43.0005 224.7100 0000487 295.2688  64.8103 15.02546290153874",
    "COMMENT": "Grouped by shell and plane from TLE"
  },
  {
    "OBJECT_NAME": "STARLINK-5675",
    "OBJECT_ID": "23013K",
    "EPOCH": "2025-11-11T02:58:21.214560",
    "MEAN_MOTION": 15.0253293,
    "ECCENTRICITY": 0.0001234,
    "INCLINATION": 43.004,
    "RA_OF_ASC_NODE": 224.6249,
    "ARG_OF_PERICENTER": 274.6081,
    "MEAN_ANOMALY": 85.462,
    "EPHEMERIS_TYPE": 0,
    "CLASSIFICATION_TYPE": "U",
    "NORAD_CAT_ID": 55340,
    "ELEMENT_SET_NO": 999,
    "REV_AT_EPOCH": 15387,
    "BSTAR": 2.9670999999999998e-05,
    "MEAN_MOTION_DOT": 1.97e-06,
    "MEAN_MOTION_DDOT": 0.0,
    "TLE_LINE1": "1 55340U 23013K   25315.12385665  .00000197  00000+0  29671-4 0  9993",
    "TLE_LINE2": "2 55340  43.0040 224.6249 0001234 274.6081  85.4620 15.02532930153876",
    "COMMENT": "Grouped by shell and plane from TLE"
  },
  {
    "OBJECT_NAME": "STARLINK-5670",
    "OBJECT_ID": "23013L",
    "EPOCH": "2025-11-11T03:19:08.280192",
    "MEAN_MOTION": 15.02542284,
    "ECCENTRICITY": 8.57e-05,
    "INCLINATION": 43.0025,
    "RA_OF_ASC_NODE": 224.7294,
    "ARG_OF_PERICENTER": 278.3929,
    "MEAN_ANOMALY": 81.6816,
    "EPHEMERIS_TYPE": 0,
    "CLASSIFICATION_TYPE": "U",
    "NORAD_CAT_ID": 55341,
    "ELEMENT_SET_NO": 999,
    "REV_AT_EPOCH": 15387,
    "BSTAR": 0.0,
    "MEAN_MOTION_DOT": -3.827e-05,
    "MEAN_MOTION_DDOT": 0.0,
    "TLE_LINE1": "1 55341U 23013L   25315.13829028 -.00003827  00000+0 -26835-3 0  9994",
    "TLE_LINE2": "2 55341  43.0025 224.7294 0000857 278.3929  81.6816 15.02542284153871",
    "COMMENT": "Grouped by shell and plane from TLE"
  },
  {
    "OBJECT_NAME": "STARLINK-5657",
    "OBJECT_ID": "23013M",
    "EPOCH": "2025-11-11T03:11:08.651328",
    "MEAN_MOTION": 15.0254045,
    "ECCENTRICITY": 0.0001255,
    "INCLINATION": 43.0035,
    "RA_OF_ASC_NODE": 224.6847,
    "ARG_OF_PERICENTER": 271.1547,
    "MEAN_ANOMALY": 88.9151,
    "EPHEMERIS_TYPE": 0,
    "CLASSIFICATION_TYPE": "U",
    "NORAD_CAT_ID": 55342,
    "ELEMENT_SET_NO": 999,
    "REV_AT_EPOCH": 15387,
    "BSTAR": 2.7829e-05,
    "MEAN_MOTION_DOT": 1.72e-06,
    "MEAN_MOTION_DDOT": 0.0,
    "TLE_LINE1": "1 55342U 23013M   25315.13273902  .00000172  00000+0  27829-4 0  9992",
    "TLE_LINE2": "2 55342  43.0035 224.6847 0001255 271.1547  88.9151 15.02540450153871",
    "COMMENT": "Grouped by shell and plane from TLE"
  },
  {
    "OBJECT_NAME": "STARLINK-5661",
    "OBJECT_ID": "23013N",
    "EPOCH": "2025-11-11T03:03:08.526528",
    "MEAN_MOTION": 15.0254579,
    "ECCENTRICITY": 0.0001206,
    "INCLINATION": 43.0034,
    "RA_OF_ASC_NODE": 224.6432,
    "ARG_OF_PERICENTER": 259.4895,
    "MEAN_ANOMALY": 100.5812,
    "EPHEMERIS_TYPE": 0,
    "CLASSIFICATION_TYPE": "U",
    "NORAD_CAT_ID": 55343,
    "ELEMENT_SET_NO": 999,
    "REV_AT_EPOCH": 15387,
    "BSTAR": 0.0,
    "MEAN_MOTION_DOT": -2.451e-05,
    "MEAN_MOTION_DDOT": 0.0,
    "TLE_LINE1": "1 55343U 23013N   25315.12718202 -.00002451  00000+0 -16635-3 0  9995",
    "TLE_LINE2": "2 55343  43.0034 224.6432 0001206 259.4895 100.5812 15.02545790153879",
    "COMMENT": "Grouped by shell and plane from TLE"
  },
  {
    "OBJECT_NAME": "STARLINK-5631",
    "OBJECT_ID": "23013R",
    "EPOCH": "2025-11-11T02:59:56.585472",
    "MEAN_MOTION": 15.02541715,
    "ECCENTRICITY": 0.0001209,
    "INCLINATION": 43.0034,
    "RA_OF_ASC_NODE": 224.6256,
    "ARG_OF_PERICENTER": 271.906,
    "MEAN_ANOMALY": 88.1644,
    "EPHEMERIS_TYPE": 0,
    "CLASSIFICATION_TYPE": "U",
    "NORAD_CAT_ID": 55346,
    "ELEMENT_SET_NO": 999,
    "REV_AT_EPOCH": 15387,
    "BSTAR": 0.00013366,
    "MEAN_MOTION_DOT": 1.603e-05,
    "MEAN_MOTION_DDOT": 0.0,
    "TLE_LINE1": "1 55346U 23013R   25315.12496048  .00001603  00000+0  13366-3 0  9993",
    "TLE_LINE2": "2 55346  43.0034 224.6256 0001209 271.9060  88.1644 15.02541715153879",
    "COMMENT": "Grouped by shell and plane from TLE"
  },
  {
    "OBJECT_NAME": "STARLINK-5663",
    "OBJECT_ID": "23013S",
    "EPOCH": "2025-11-11T04:18:06.156288",
    "MEAN_MOTION": 15.02520973,
    "ECCENTRICITY": 0.0001341,
    "INCLINATION": 43.0043,
    "RA_OF_ASC_NODE": 224.1717,
    "ARG_OF_PERICENTER": 274.2124,
    "MEAN_ANOMALY": 85.8565,
    "EPHEMERIS_TYPE": 0,
    "CLASSIFICATION_TYPE": "U",
    "NORAD_CAT_ID": 55347,
    "ELEMENT_SET_NO": 999,
    "REV_AT_EPOCH": 15388,
    "BSTAR": 0.00036492999999999996,
    "MEAN_MOTION_DOT": 4.727e-05,
    "MEAN_MOTION_DDOT": 0.0,
    "TLE_LINE1": "1 55347U 23013S   25315.17923792  .00004727  00000+0  36493-3 0  9996",
    "TLE_LINE2": "2 55347  43.0043 224.1717 0001341 274.2124  85.8565 15.02520973153881",
    "COMMENT": "Grouped by shell and plane from TLE"
  },
  {
    "OBJECT_NAME": "STARLINK-5609",
    "OBJECT_ID": "23013T",
    "EPOCH": "2025-11-11T04:30:53.091072",
    "MEAN_MOTION": 15.02538095,
    "ECCENTRICITY": 0.0001019,
    "INCLINATION": 43.0029,
    "RA_OF_ASC_NODE": 224.2406,
    "ARG_OF_PERICENTER": 278.2577,
    "MEAN_ANOMALY": 81.815,
    "EPHEMERIS_TYPE": 0,
    "CLASSIFICATION_TYPE": "U",
    "NORAD_CAT_ID": 55348,
    "ELEMENT_SET_NO": 999,
    "REV_AT_EPOCH": 15388,
    "BSTAR": 0.00016852000000000002,
    "MEAN_MOTION_DOT": 2.074e-05,
    "MEAN_MOTION_DDOT": 0.0,
    "TLE_LINE1": "1 55348U 23013T   25315.18811448  .00002074  00000+0  16852-3 0  9992",
    "TLE_LINE2": "2 55348  43.0029 224.2406 0001019 278.2577  81.8150 15.02538095153880",
    "COMMENT": "Grouped by shell and plane from TLE"
  },
  {
    "OBJECT_NAME": "STARLINK-5666",
    "OBJECT_ID": "23013U",
    "EPOCH": "2025-11-11T04:26:05.492256",
    "MEAN_MOTION": 15.0253193,
    "ECCENTRICITY": 0.0001168,
    "INCLINATION": 43.0039,
    "RA_OF_ASC_NODE": 224.2157,
    "ARG_OF_PERICENTER": 270.7111,
    "MEAN_ANOMALY": 89.3598,
    "EPHEMERIS_TYPE": 0,
    "CLASSIFICATION_TYPE": "U",
    "NORAD_CAT_ID": 55349,
    "ELEMENT_SET_NO": 999,
    "REV_AT_EPOCH": 15388,
    "BSTAR": 2.5883000000000003e-05,
    "MEAN_MOTION_DOT": 1.46e-06,
    "MEAN_MOTION_DDOT": 0.0,
    "TLE_LINE1": "1 55349U 23013U   25315.18478579  .00000146  00000+0  25883-4 0  9990",
    "TLE_LINE2": "2 55349  43.0039 224.2157 0001168 270.7111  89.3598 15.02531930153881",
    "COMMENT": "Grouped by shell and plane from TLE"
  },
  {
    "OBJECT_NAME": "STARLINK-5668",
    "OBJECT_ID": "23013V",
    "EPOCH": "2025-11-11T02:45:33.773472",
    "MEAN_MOTION": 15.02537718,
    "ECCENTRICITY": 0.000138,
    "INCLINATION": 43.0043,
    "RA_OF_ASC_NODE": 224.5536,
    "ARG_OF_PERICENTER": 266.7179,
    "MEAN_ANOMALY": 93.3506,
    "EPHEMERIS_TYPE": 0,
    "CLASSIFICATION_TYPE": "U",
    "NORAD_CAT_ID": 55350,
    "ELEMENT_SET_NO": 999,
    "REV_AT_EPOCH": 15387,
    "BSTAR": 4.0016000000000004e-05,
    "MEAN_MOTION_DOT": 3.37e-06,
    "MEAN_MOTION_DDOT": 0.0,
    "TLE_LINE1": "1 55350U 23013V   25315.11497423  .00000337  00000+0  40016-4 0  9991",
    "TLE_LINE2": "2 55350  43.0043 224.5536 0001380 266.7179  93.3506 15.02537718153870",
    "COMMENT": "Grouped by shell and plane from TLE"
  },
  {
    "OBJECT_NAME": "STARLINK-5659",
    "OBJECT_ID": "23013W",
    "EPOCH": "2025-11-11T04:05:18.804192",
    "MEAN_MOTION": 15.02538049,
    "ECCENTRICITY": 7.07e-05,
    "INCLINATION": 43.0015,
    "RA_OF_ASC_NODE": 224.1052,
    "ARG_OF_PERICENTER": 266.2487,
    "MEAN_ANOMALY": 93.8274,
    "EPHEMERIS_TYPE": 0,
    "CLASSIFICATION_TYPE": "U",
    "NORAD_CAT_ID": 55351,
    "ELEMENT_SET_NO": 999,
    "REV_AT_EPOCH": 15388,
    "BSTAR": 0.00010425,
    "MEAN_MOTION_DOT": 1.205e-05,
    "MEAN_MOTION_DDOT": 0.0,
    "TLE_LINE1": "1 55351U 23013W   25315.17035653  .00001205  00000+0  10425-3 0  9996",
    "TLE_LINE2": "2 55351  43.0015 224.1052 0000707 266.2487  93.8274 15.02538049153884",
    "COMMENT": "Grouped by shell and plane from TLE"
  },
  {
    "OBJECT_NAME": "STARLINK-5547",
    "OBJECT_ID": "23013X",
    "EPOCH": "2025-11-11T02:37:34.759776",
    "MEAN_MOTION": 15.02530815,
    "ECCENTRICITY": 0.0001121,
    "INCLINATION": 43.0035,
    "RA_OF_ASC_NODE": 224.5094,
    "ARG_OF_PERICENTER": 265.7647,
    "MEAN_ANOMALY": 94.3067,
    "EPHEMERIS_TYPE": 0,
    "CLASSIFICATION_TYPE": "U",
    "NORAD_CAT_ID": 55352,
    "ELEMENT_SET_NO": 999,
    "REV_AT_EPOCH": 15387,
    "BSTAR": 0.00010564999999999999,
    "MEAN_MOTION_DOT": 1.224e-05,
    "MEAN_MOTION_DDOT": 0.0,
    "TLE_LINE1": "1 55352U 23013X   25315.10943009  .00001224  00000+0  10565-3 0  9999",
    "TLE_LINE2": "2 55352  43.0035 224.5094 0001121 265.7647  94.3067 15.02530815153878",
    "COMMENT": "Grouped by shell and plane from TLE"
  },
  {
    "OBJECT_NAME": "STARLINK-5608",
    "OBJECT_ID": "23013Y",
    "EPOCH": "2025-11-11T02:08:48.403104",
    "MEAN_MOTION": 15.02530515,
    "ECCENTRICITY": 0.0001207,
    "INCLINATION": 43.0048,
    "RA_OF_ASC_NODE": 224.3568,
    "ARG_OF_PERICENTER": 260.2665,
    "MEAN_ANOMALY": 99.8041,
    "EPHEMERIS_TYPE": 0,
    "CLASSIFICATION_TYPE": "U",
    "NORAD_CAT_ID": 55353,
    "ELEMENT_SET_NO": 999,
    "REV_AT_EPOCH": 15387,
    "BSTAR": 0.0001189,
    "MEAN_MOTION_DOT": 1.403e-05,
    "MEAN_MOTION_DDOT": 0.0,
    "TLE_LINE1": "1 55353U 23013Y   25315.08944911  .00001403  00000+0  11890-3 0  9991",
    "TLE_LINE2": "2 55353  43.0048 224.3568 0001207 260.2665  99.8041 15.02530515153871",
    "COMMENT": "Grouped by shell and plane from TLE"
  }
]